*******************************************************************************
 Revised: April 12, 2021               Jupiter                              599
 
 PHYSICAL DATA:
  Mass x 10^22 (g)      = 189818722 +- 8817 Density (g/cm^3)  = 1.3262 +- .0003
  Equat. radius (1 bar) = 71492+-4 km       Polar radius (km)     = 66854+-10
  Vol. Mean Radius (km) = 69911+-6          Flattening            = 0.06487
  Geometric Albedo      = 0.52              Rocky core mass (Mc/M)= 0.0261
  Sid. rot. period (III)= 9h 55m 29.71 s    Sid. rot. rate (rad/s)= 0.00017585
  Mean solar day, hrs   = ~9.9259         
  GM (km^3/s^2)         = 126686531.900     GM 1-sigma (km^3/s^2) =  +- 1.2732
  Equ. grav, ge (m/s^2) = 24.79             Pol. grav, gp (m/s^2) =  28.34
  Vis. magnitude V(1,0) = -9.40
  Vis. mag. (opposition)= -2.70             Obliquity to orbit    =  3.13 deg
  Sidereal orbit period = 11.861982204 y    Sidereal orbit period = 4332.589 d
  Mean daily motion     = 0.0831294 deg/d   Mean orbit speed, km/s= 13.0697
  Atmos. temp. (1 bar)  = 165+-5 K          Escape speed, km/s    =  59.5           
  A_roche(ice)/Rp       =  2.76             Hill's sphere rad. Rp = 740
                                 Perihelion   Aphelion     Mean
  Solar Constant (W/m^2)         56           46           51
  Maximum Planetary IR (W/m^2)   13.7         13.4         13.6
  Minimum Planetary IR (W/m^2)   13.7         13.4         13.6
*******************************************************************************


*******************************************************************************
Ephemeris / WWW_USER Fri Jan 28 06:31:55 2022 Pasadena, USA      / Horizons
*******************************************************************************
Target body name: Jupiter (599)                   {source: jup365_merged}
Center body name: Sun (10)                        {source: jup365_merged}
Center-site name: BODY CENTER
*******************************************************************************
Start time      : A.D. 1850-Jan-28 00:00:00.0000 TDB
Stop  time      : A.D. 2022-Jan-28 00:00:00.0000 TDB
Step-size       : 14400 minutes
*******************************************************************************
Center geodetic : 0.00000000,0.00000000,0.0000000 {E-lon(deg),Lat(deg),Alt(km)}
Center cylindric: 0.00000000,0.00000000,0.0000000 {E-lon(deg),Dxy(km),Dz(km)}
Center radii    : 696000.0 x 696000.0 x 696000.0 k{Equator, meridian, pole}    
Output units    : KM-D
Output type     : GEOMETRIC cartesian states
Output format   : 2 (position and velocity)
Reference frame : Ecliptic of J2000.0
*******************************************************************************
            JDTDB,            Calendar Date (TDB),                      X,                      Y,                      Z,                     VX,                     VY,                     VZ,
**************************************************************************************************************************************************************************************************
$$SOE
2441235.500000000, A.D. 1971-Oct-11 00:00:00.0000, -2.322014480222633E+08, -7.617514404182265E+08,  8.335112814749837E+06,  1.067205283306160E+06, -2.767650739426176E+05, -2.276780707656005E+04,
2441245.500000000, A.D. 1971-Oct-21 00:00:00.0000, -2.215063042856455E+08, -7.644459645384767E+08,  8.106573304235280E+06,  1.071895796044445E+06, -2.620143217381720E+05, -2.293442778961355E+04,
2441255.500000000, A.D. 1971-Oct-31 00:00:00.0000, -2.107669912097333E+08, -7.669898103565762E+08,  7.876458184241593E+06,  1.076000376941569E+06, -2.468612977804609E+05, -2.309101778716323E+04,
2441265.500000000, A.D. 1971-Nov-10 00:00:00.0000, -1.999865414693207E+08, -7.693827817218219E+08,  7.644779301349699E+06,  1.079986454243914E+06, -2.317073161741206E+05, -2.324425952795575E+04,
2441275.500000000, A.D. 1971-Nov-20 00:00:00.0000, -1.891665855363813E+08, -7.716238209623300E+08,  7.411596047318101E+06,  1.083990200889166E+06, -2.165240685800700E+05, -2.339226377451318E+04,
2441285.500000000, A.D. 1971-Nov-30 00:00:00.0000, -1.783089419295892E+08, -7.737122234963026E+08,  7.176954884467781E+06,  1.087440404783814E+06, -2.011335877115359E+05, -2.353577323546142E+04,
2441295.500000000, A.D. 1971-Dec-10 00:00:00.0000, -1.674165642740535E+08, -7.756475725514168E+08,  6.940880653050780E+06,  1.090994303732664E+06, -1.858587465553033E+05, -2.367662420053963E+04,
2441305.500000000, A.D. 1971-Dec-20 00:00:00.0000, -1.564904214676301E+08, -7.774287930076172E+08,  6.703444241345823E+06,  1.094270992874573E+06, -1.703626605945161E+05, -2.380860876378063E+04,
2441315.500000000, A.D. 1971-Dec-30 00:00:00.0000, -1.455336099325246E+08, -7.790555959209077E+08,  6.464666472891688E+06,  1.097099554235432E+06, -1.550280863425398E+05, -2.394682604081004E+04,
2441325.500000000, A.D. 1972-Jan-09 00:00:00.0000, -1.345476928739561E+08, -7.805271805425632E+08,  6.224606105711639E+06,  1.099983309281372E+06, -1.393675119087974E+05, -2.406808591420024E+04,
2441335.500000000, A.D. 1972-Jan-19 00:00:00.0000, -1.235346745466535E+08, -7.818430337647558E+08,  5.983307626546025E+06,  1.102542906365064E+06, -1.237058468004434E+05, -2.418816604943093E+04,
2441345.500000000, A.D. 1972-Jan-29 00:00:00.0000, -1.124975549702283E+08, -7.830026888791497E+08,  5.740804543425381E+06,  1.104877262764899E+06, -1.082333823908254E+05, -2.431222571874100E+04,
2441355.500000000, A.D. 1972-Feb-08 00:00:00.0000, -1.014372588105046E+08, -7.840053832019458E+08,  5.497165462401330E+06,  1.107099907415567E+06, -9.226516794473618E+04, -2.441464327821888E+04,
2441365.500000000, A.D. 1972-Feb-18 00:00:00.0000, -9.035712129852754E+07, -7.848509072551562E+08,  5.252412862120330E+06,  1.109011442462854E+06, -7.676372007949979E+04, -2.453105462262507E+04,
2441375.500000000, A.D. 1972-Feb-28 00:00:00.0000, -7.925868617845237E+07, -7.855384860428143E+08,  5.006612258702099E+06,  1.110637678560508E+06, -6.093949038746578E+04, -2.463472120610262E+04,
2441385.500000000, A.D. 1972-Mar-09 00:00:00.0000, -6.814392021939220E+07, -7.860679047559063E+08,  4.759805110331178E+06,  1.112138082488522E+06, -4.485171287701247E+04, -2.472458487120157E+04,
2441395.500000000, A.D. 1972-Mar-19 00:00:00.0000, -5.701605974023382E+07, -7.864387754561474E+08,  4.512025352491379E+06,  1.113483394873825E+06, -2.927604370992485E+04, -2.482816413330086E+04,
2441405.500000000, A.D. 1972-Mar-29 00:00:00.0000, -4.587595347292188E+07, -7.866504215388829E+08,  4.263346581415236E+06,  1.114446015729817E+06, -1.310293584246410E+04, -2.490983824655541E+04,
2441415.500000000, A.D. 1972-Apr-08 00:00:00.0000, -3.472698476267557E+07, -7.867028668682629E+08,  4.013789899412811E+06,  1.115346063079419E+06,  2.763470879833532E+03, -2.499541406789316E+04,
2441425.500000000, A.D. 1972-Apr-18 00:00:00.0000, -2.357091172372166E+07, -7.865954151053046E+08,  3.763422900709629E+06,  1.115946956878619E+06,  1.858836542682983E+04, -2.508025668056026E+04,
2441435.500000000, A.D. 1972-Apr-28 00:00:00.0000, -1.240958271616754E+07, -7.863279189656018E+08,  3.512294504595101E+06,  1.116142524076160E+06,  3.487553128793068E+04, -2.514751398761536E+04,
2441445.500000000, A.D. 1972-May-08 00:00:00.0000, -1.246341581073856E+06, -7.859002606035378E+08,  3.260436667119086E+06,  1.116462431268875E+06,  5.074938139581162E+04, -2.522016238488396E+04,
2441455.500000000, A.D. 1972-May-18 00:00:00.0000,  9.917785356743587E+06, -7.853118705489589E+08,  3.007925840249300E+06,  1.116345020786915E+06,  6.690135423137969E+04, -2.528218575803104E+04,
2441465.500000000, A.D. 1972-May-28 00:00:00.0000,  2.107950226795194E+07, -7.845628438368198E+08,  2.754790247156560E+06,  1.115949983647552E+06,  8.298030567251210E+04, -2.534211082308162E+04,
2441475.500000000, A.D. 1972-Jun-07 00:00:00.0000,  3.223691141598793E+07, -7.836528130389211E+08,  2.501092011169612E+06,  1.115572675732210E+06,  9.899104057215530E+04, -2.539678722281393E+04,
2441485.500000000, A.D. 1972-Jun-17 00:00:00.0000,  4.338806498086001E+07, -7.825816597497977E+08,  2.246884975021362E+06,  1.114611038709409E+06,  1.151828777767871E+05, -2.544550473653751E+04,
2441495.500000000, A.D. 1972-Jun-27 00:00:00.0000,  5.452972502935683E+07, -7.813494002297698E+08,  1.992205696267724E+06,  1.113609598740410E+06,  1.312500632332567E+05, -2.549102281478724E+04,
2441505.500000000, A.D. 1972-Jul-07 00:00:00.0000,  6.566072847253861E+07, -7.799558228512578E+08,  1.737124550071895E+06,  1.112516523023168E+06,  1.475281367212380E+05, -2.552272704250245E+04,
2441515.500000000, A.D. 1972-Jul-17 00:00:00.0000,  7.677768646205257E+07, -7.784009841986883E+08,  1.481677967417836E+06,  1.110909179834506E+06,  1.634980200409936E+05, -2.556315245637030E+04,
2441525.500000000, A.D. 1972-Jul-27 00:00:00.0000,  8.787879028104985E+07, -7.766847521015562E+08,  1.225929478502154E+06,  1.109274589657379E+06,  1.796731718837328E+05, -2.558838509084546E+04,
2441535.500000000, A.D. 1972-Aug-06 00:00:00.0000,  9.896194699867572E+07, -7.748072723090285E+08,  9.699301601008773E+05,  1.107336069165399E+06,  1.958700469651587E+05, -2.560832804974505E+04,
2441545.500000000, A.D. 1972-Aug-16 00:00:00.0000,  1.100238707805209E+08, -7.727685315365140E+08,  7.137250720015764E+05,  1.105034515744311E+06,  2.117716804359271E+05, -2.563480737463297E+04,
2441555.500000000, A.D. 1972-Aug-26 00:00:00.0000,  1.210635165922189E+08, -7.705686573254267E+08,  4.573819120220542E+05,  1.102702481806111E+06,  2.282058608154828E+05, -2.563477800701564E+04,
2441565.500000000, A.D. 1972-Sep-05 00:00:00.0000,  1.320773228717837E+08, -7.682078994421859E+08,  2.009346581215858E+05,  1.100096217027838E+06,  2.441116474485673E+05, -2.564726056793189E+04,
2441575.500000000, A.D. 1972-Sep-15 00:00:00.0000,  1.430634801441231E+08, -7.656861639615813E+08, -5.554813640195131E+04,  1.097160255799037E+06,  2.601033718064448E+05, -2.565231720000745E+04,
